IRIDIUM 116             
1 43072U 17083C   25144.46480543  .00000028  00000+0  29083-5 0  9991
2 43072  86.3948 124.5255 0002521  83.3793 276.7689 14.34217883388457
IRIDIUM 130             
1 43073U 17083D   25144.43309246  .00000371  00000+0  12544-3 0  9992
2 43073  86.3957 124.7761 0002720  88.4061 271.7446 14.34217242388395
IRIDIUM 151             
1 43074U 17083E   25144.47749068  .00000003  00000+0 -59757-5 0  9999
2 43074  86.3952 124.5693 0002399  82.9157 277.2311 14.34217541388428
IRIDIUM 134             
1 43075U 17083F   25144.44577154  .00000186  00000+0  59240-4 0  9999
2 43075  86.3950 124.5852 0002624  90.3127 269.8369 14.34216301388383
IRIDIUM 137             
1 43076U 17083G   25144.45846267  .00000058  00000+0  13770-4 0  9991
2 43076  86.3953 124.6647 0002574  73.0813 287.0665 14.34217739388459
IRIDIUM 141             
1 43077U 17083H   25144.45211821  .00000024  00000+0  13627-5 0  9999
2 43077  86.3949 124.5202 0002118  92.2796 267.8643 14.34217057388453
IRIDIUM 153             
1 43078U 17083J   25144.40429869  .00000120  00000+0  35889-4 0  9998
2 43078  86.3952  93.0101 0002037  96.6131 263.5297 14.34217941389559
IRIDIUM 131             
1 43079U 17083K   25144.43943470  .00000068  00000+0  17106-4 0  9994
2 43079  86.3953 124.6855 0002130  86.6650 273.4789 14.34217867388380
